[{"OBJECT_NAME":"STARLINK-4130","OBJECT_ID":"2022-086X","EPOCH":"2026-03-09T15:58:17.077152","MEAN_MOTION":15.08813544,"ECCENTRICITY":0.00014897,"INCLINATION":53.2186,"RA_OF_ASC_NODE":194.2295,"ARG_OF_PERICENTER":78.5274,"MEAN_ANOMALY":281.5885,"EPHEMERIS_TYPE":0,"CLASSIFICATION_TYPE":"U","NORAD_CAT_ID":53263,"ELEMENT_SET_NO":999,"REV_AT_EPOCH":20106,"BSTAR":0.00039432976,"MEAN_MOTION_DOT":5.989e-5,"MEAN_MOTION_DDOT":0},{"OBJECT_NAME":"CZ-6A DEB","OBJECT_ID":"2022-151UT","EPOCH":"2026-03-09T17:50:02.810976","MEAN_MOTION":14.9898329,"ECCENTRICITY":0.00453187,"INCLINATION":98.6222,"RA_OF_ASC_NODE":145.5138,"ARG_OF_PERICENTER":180.208,"MEAN_ANOMALY":179.9129,"EPHEMERIS_TYPE":0,"CLASSIFICATION_TYPE":"U","NORAD_CAT_ID":55003,"ELEMENT_SET_NO":999,"REV_AT_EPOCH":17561,"BSTAR":0.0047870048,"MEAN_MOTION_DOT":0.00059614,"MEAN_MOTION_DDOT":0}]
